[{"OBJECT_NAME":"STARLINK-6224","OBJECT_ID":"2023-061BD","EPOCH":"2026-03-09T08:29:56.195232","MEAN_MOTION":15.02536507,"ECCENTRICITY":0.00013696,"INCLINATION":43.0042,"RA_OF_ASC_NODE":173.3267,"ARG_OF_PERICENTER":257.4491,"MEAN_ANOMALY":102.6198,"EPHEMERIS_TYPE":0,"CLASSIFICATION_TYPE":"U","NORAD_CAT_ID":56425,"ELEMENT_SET_NO":999,"REV_AT_EPOCH":15700,"BSTAR":2.2599851e-5,"MEAN_MOTION_DOT":1.02e-6,"MEAN_MOTION_DDOT":0},{"OBJECT_NAME":"MINOTAUR 4 DEB","OBJECT_ID":"2020-046AB","EPOCH":"2026-03-09T21:53:22.840224","MEAN_MOTION":15.04149387,"ECCENTRICITY":0.00103054,"INCLINATION":53.9803,"RA_OF_ASC_NODE":316.6393,"ARG_OF_PERICENTER":80.1776,"MEAN_ANOMALY":280.0387,"EPHEMERIS_TYPE":0,"CLASSIFICATION_TYPE":"U","NORAD_CAT_ID":52037,"ELEMENT_SET_NO":999,"REV_AT_EPOCH":22693,"BSTAR":0.00012711185,"MEAN_MOTION_DOT":1.507e-5,"MEAN_MOTION_DDOT":0}]
